ONEWEB-0584             
1 54651U 22166K   23328.78136822  .00000048  00000+0  84635-4 0  9994
2 54651  87.9253  70.1860 0001943  90.0536 270.0820 13.21826060 47941
ONEWEB-0585             
1 54652U 22166L   23328.80660173 -.00001275  00000+0 -31189-2 0  9998
2 54652  87.9254  70.1844 0001547 113.9836 246.1460 13.21831748 47957
ONEWEB-0586             
1 54653U 22166M   23328.81921403 -.00000050  00000+0 -15306-3 0  9990
2 54653  87.9231  70.2153 0001859  95.6943 264.4403 13.21827527 47958
ONEWEB-0587             
1 54654U 22166N   23328.82868867  .00000046  00000+0  79835-4 0  9997
2 54654  87.9246  70.1669 0001572 114.4826 245.6471 13.21823448 48111
ONEWEB-0589             
1 54655U 22166P   23328.81606846 -.00000817  00000+0 -20086-2 0  9994
2 54655  87.9258  70.1891 0002545  86.0605 274.0820 13.21829574 47975
ONEWEB-0590             
1 54656U 22166Q   23328.83974212  .00000352  00000+0  81977-3 0  9991
2 54656  87.9255  70.1877 0001857 110.0866 250.0468 13.21826531 48422
ONEWEB-0591             
1 54657U 22166R   23328.77663365  .00000084  00000+0  17255-3 0  9999
2 54657  87.9258  70.2009 0001846  95.6112 264.5232 13.21827308 47986
ONEWEB-0592             
1 54658U 22166S   23328.85550162 -.00000028  00000+0 -99101-4 0  9990
2 54658  87.9247  70.1626 0001978  94.8081 265.3279 13.21825724 47879
